CCSDS_OMM_VERS = 2.0
CREATION_DATE  = 
ORIGINATOR     = 

OBJECT_NAME    = KUIPER-00136
OBJECT_ID      = 2025-228R
CENTER_NAME    = EARTH
REF_FRAME      = TEME
TIME_SYSTEM    = UTC
MEAN_ELEMENT_THEORY = SGP/SGP4

EPOCH          = 2025-10-30T21:06:36.750528
MEAN_MOTION    = 15.34844227
ECCENTRICITY   = .00057059
INCLINATION    = 51.8788
RA_OF_ASC_NODE = 227.0412
ARG_OF_PERICENTER = 193.6791
MEAN_ANOMALY   = 166.4041

EPHEMERIS_TYPE = 0
CLASSIFICATION_TYPE = U
NORAD_CAT_ID   = 65962
ELEMENT_SET_NO = 999
REV_AT_EPOCH   = 383
BSTAR          = .14446034E-2
MEAN_MOTION_DOT = .49518E-3
MEAN_MOTION_DDOT = 0

CCSDS_OMM_VERS = 2.0
CREATION_DATE  = 
ORIGINATOR     = 

OBJECT_NAME    = KUIPER-00137
OBJECT_ID      = 2025-228S
CENTER_NAME    = EARTH
REF_FRAME      = TEME
TIME_SYSTEM    = UTC
MEAN_ELEMENT_THEORY = SGP/SGP4

EPOCH          = 2025-10-30T21:12:21.978144
MEAN_MOTION    = 15.34471707
ECCENTRICITY   = .00053771
INCLINATION    = 51.8794
RA_OF_ASC_NODE = 227.0699
ARG_OF_PERICENTER = 200.6514
MEAN_ANOMALY   = 159.4255

EPHEMERIS_TYPE = 0
CLASSIFICATION_TYPE = U
NORAD_CAT_ID   = 65963
ELEMENT_SET_NO = 999
REV_AT_EPOCH   = 383
BSTAR          = .80923058E-3
MEAN_MOTION_DOT = .2716E-3
MEAN_MOTION_DDOT = 0

CCSDS_OMM_VERS = 2.0
CREATION_DATE  = 
ORIGINATOR     = 

OBJECT_NAME    = KUIPER-00138
OBJECT_ID      = 2025-228T
CENTER_NAME    = EARTH
REF_FRAME      = TEME
TIME_SYSTEM    = UTC
MEAN_ELEMENT_THEORY = SGP/SGP4

EPOCH          = 2025-10-30T21:15:08.762112
MEAN_MOTION    = 15.34288093
ECCENTRICITY   = .0005861
INCLINATION    = 51.8781
RA_OF_ASC_NODE = 227.0745
ARG_OF_PERICENTER = 215.9950
MEAN_ANOMALY   = 144.0641

EPHEMERIS_TYPE = 0
CLASSIFICATION_TYPE = U
NORAD_CAT_ID   = 65964
ELEMENT_SET_NO = 999
REV_AT_EPOCH   = 383
BSTAR          = .13591976E-2
MEAN_MOTION_DOT = .45725E-3
MEAN_MOTION_DDOT = 0

CCSDS_OMM_VERS = 2.0
CREATION_DATE  = 
ORIGINATOR     = 

OBJECT_NAME    = KUIPER-00140
OBJECT_ID      = 2025-228U
CENTER_NAME    = EARTH
REF_FRAME      = TEME
TIME_SYSTEM    = UTC
MEAN_ELEMENT_THEORY = SGP/SGP4

EPOCH          = 2025-10-30T21:16:15.234816
MEAN_MOTION    = 15.34390222
ECCENTRICITY   = .00068875
INCLINATION    = 51.8795
RA_OF_ASC_NODE = 227.0839
ARG_OF_PERICENTER = 228.6293
MEAN_ANOMALY   = 131.4101

EPHEMERIS_TYPE = 0
CLASSIFICATION_TYPE = U
NORAD_CAT_ID   = 65965
ELEMENT_SET_NO = 999
REV_AT_EPOCH   = 383
BSTAR          = .53962646E-2
MEAN_MOTION_DOT = .186749E-2
MEAN_MOTION_DDOT = 0

CCSDS_OMM_VERS = 2.0
CREATION_DATE  = 
ORIGINATOR     = 

OBJECT_NAME    = KUIPER-00141
OBJECT_ID      = 2025-228V
CENTER_NAME    = EARTH
REF_FRAME      = TEME
TIME_SYSTEM    = UTC
MEAN_ELEMENT_THEORY = SGP/SGP4

EPOCH          = 2025-10-30T21:09:34.541856
MEAN_MOTION    = 15.34639063
ECCENTRICITY   = .00058104
INCLINATION    = 51.8780
RA_OF_ASC_NODE = 227.0489
ARG_OF_PERICENTER = 196.4601
MEAN_ANOMALY   = 163.6197

EPHEMERIS_TYPE = 0
CLASSIFICATION_TYPE = U
NORAD_CAT_ID   = 65966
ELEMENT_SET_NO = 999
REV_AT_EPOCH   = 383
BSTAR          = .71877533E-3
MEAN_MOTION_DOT = .24203E-3
MEAN_MOTION_DDOT = 0

CCSDS_OMM_VERS = 2.0
CREATION_DATE  = 
ORIGINATOR     = 

OBJECT_NAME    = KUIPER-00146
OBJECT_ID      = 2025-228W
CENTER_NAME    = EARTH
REF_FRAME      = TEME
TIME_SYSTEM    = UTC
MEAN_ELEMENT_THEORY = SGP/SGP4

EPOCH          = 2025-10-30T21:10:07.197600
MEAN_MOTION    = 15.34619528
ECCENTRICITY   = .00056239
INCLINATION    = 51.8791
RA_OF_ASC_NODE = 227.0591
ARG_OF_PERICENTER = 198.3245
MEAN_ANOMALY   = 161.7538

EPHEMERIS_TYPE = 0
CLASSIFICATION_TYPE = U
NORAD_CAT_ID   = 65967
ELEMENT_SET_NO = 999
REV_AT_EPOCH   = 383
BSTAR          = .12112415E-2
MEAN_MOTION_DOT = .41113E-3
MEAN_MOTION_DDOT = 0

CCSDS_OMM_VERS = 2.0
CREATION_DATE  = 
ORIGINATOR     = 

OBJECT_NAME    = KUIPER-00149
OBJECT_ID      = 2025-228X
CENTER_NAME    = EARTH
REF_FRAME      = TEME
TIME_SYSTEM    = UTC
MEAN_ELEMENT_THEORY = SGP/SGP4

EPOCH          = 2025-10-30T21:07:12.233280
MEAN_MOTION    = 15.34784054
ECCENTRICITY   = .00057307
INCLINATION    = 51.8784
RA_OF_ASC_NODE = 227.0395
ARG_OF_PERICENTER = 195.3953
MEAN_ANOMALY   = 164.6859

EPHEMERIS_TYPE = 0
CLASSIFICATION_TYPE = U
NORAD_CAT_ID   = 65968
ELEMENT_SET_NO = 999
REV_AT_EPOCH   = 383
BSTAR          = .72568251E-3
MEAN_MOTION_DOT = .24554E-3
MEAN_MOTION_DDOT = 0

CCSDS_OMM_VERS = 2.0
CREATION_DATE  = 
ORIGINATOR     = 

OBJECT_NAME    = KUIPER-00154
OBJECT_ID      = 2025-228Y
CENTER_NAME    = EARTH
REF_FRAME      = TEME
TIME_SYSTEM    = UTC
MEAN_ELEMENT_THEORY = SGP/SGP4

EPOCH          = 2025-10-30T21:06:06.541632
MEAN_MOTION    = 15.34868653
ECCENTRICITY   = .00059234
INCLINATION    = 51.8784
RA_OF_ASC_NODE = 227.0349
ARG_OF_PERICENTER = 193.0001
MEAN_ANOMALY   = 167.0833

EPHEMERIS_TYPE = 0
CLASSIFICATION_TYPE = U
NORAD_CAT_ID   = 65969
ELEMENT_SET_NO = 999
REV_AT_EPOCH   = 383
BSTAR          = .13615823E-2
MEAN_MOTION_DOT = .4667E-3
MEAN_MOTION_DDOT = 0

CCSDS_OMM_VERS = 2.0
CREATION_DATE  = 
ORIGINATOR     = 

OBJECT_NAME    = KUIPER-00157
OBJECT_ID      = 2025-228Z
CENTER_NAME    = EARTH
REF_FRAME      = TEME
TIME_SYSTEM    = UTC
MEAN_ELEMENT_THEORY = SGP/SGP4

EPOCH          = 2025-10-30T21:13:51.722688
MEAN_MOTION    = 15.34397675
ECCENTRICITY   = .00060619
INCLINATION    = 51.8792
RA_OF_ASC_NODE = 227.0753
ARG_OF_PERICENTER = 207.4925
MEAN_ANOMALY   = 152.5741

EPHEMERIS_TYPE = 0
CLASSIFICATION_TYPE = U
NORAD_CAT_ID   = 65970
ELEMENT_SET_NO = 999
REV_AT_EPOCH   = 383
BSTAR          = .19339298E-2
MEAN_MOTION_DOT = .65623E-3
MEAN_MOTION_DDOT = 0

CCSDS_OMM_VERS = 2.0
CREATION_DATE  = 
ORIGINATOR     = 

OBJECT_NAME    = STRIX-5
OBJECT_ID      = 2025-229A
CENTER_NAME    = EARTH
REF_FRAME      = TEME
TIME_SYSTEM    = UTC
MEAN_ELEMENT_THEORY = SGP/SGP4

EPOCH          = 2025-10-30T21:01:37.566336
MEAN_MOTION    = 15.01690420
ECCENTRICITY   = .00398773
INCLINATION    = 41.9265
RA_OF_ASC_NODE = 116.6033
ARG_OF_PERICENTER = 350.4666
MEAN_ANOMALY   = 9.5399

EPHEMERIS_TYPE = 0
CLASSIFICATION_TYPE = U
NORAD_CAT_ID   = 65971
ELEMENT_SET_NO = 999
REV_AT_EPOCH   = 246
BSTAR          = .50368707E-3
MEAN_MOTION_DOT = .6583E-4
MEAN_MOTION_DDOT = 0

CCSDS_OMM_VERS = 2.0
CREATION_DATE  = 
ORIGINATOR     = 

OBJECT_NAME    = ELECTRON R/B
OBJECT_ID      = 2025-229B
CENTER_NAME    = EARTH
REF_FRAME      = TEME
TIME_SYSTEM    = UTC
MEAN_ELEMENT_THEORY = SGP/SGP4

EPOCH          = 2025-10-30T17:50:04.313472
MEAN_MOTION    = 15.01685681
ECCENTRICITY   = .00397836
INCLINATION    = 41.9268
RA_OF_ASC_NODE = 117.3369
ARG_OF_PERICENTER = 349.5451
MEAN_ANOMALY   = 10.4543

EPHEMERIS_TYPE = 0
CLASSIFICATION_TYPE = U
NORAD_CAT_ID   = 65972
ELEMENT_SET_NO = 999
REV_AT_EPOCH   = 242
BSTAR          = .42756883E-3
MEAN_MOTION_DOT = .5557E-4
MEAN_MOTION_DDOT = 0

CCSDS_OMM_VERS = 2.0
CREATION_DATE  = 
ORIGINATOR     = 

OBJECT_NAME    = ELECTRON KICK STAGE R/B
OBJECT_ID      = 2025-229C
CENTER_NAME    = EARTH
REF_FRAME      = TEME
TIME_SYSTEM    = UTC
MEAN_ELEMENT_THEORY = SGP/SGP4

EPOCH          = 2025-10-30T16:01:29.761248
MEAN_MOTION    = 15.02558502
ECCENTRICITY   = .00408603
INCLINATION    = 41.9826
RA_OF_ASC_NODE = 117.7294
ARG_OF_PERICENTER = 349.1880
MEAN_ANOMALY   = 10.8064

EPHEMERIS_TYPE = 0
CLASSIFICATION_TYPE = U
NORAD_CAT_ID   = 65973
ELEMENT_SET_NO = 999
REV_AT_EPOCH   = 240
BSTAR          = .66957917E-3
MEAN_MOTION_DOT = .9035E-4
MEAN_MOTION_DDOT = 0

