KUIPER-00136            
1 65962U 25228R   25303.87959202  .00049518  00000+0  14446-2 0  9999
2 65962  51.8788 227.0412 0005705 193.6791 166.4041 15.34844227  3834
KUIPER-00137            
1 65963U 25228S   25303.88358771  .00027160  00000+0  80923-3 0  9998
2 65963  51.8794 227.0699 0005377 200.6514 159.4255 15.34471707  3834
KUIPER-00138            
1 65964U 25228T   25303.88551808  .00045725  00000+0  13592-2 0  9999
2 65964  51.8781 227.0745 0005861 215.9950 144.0641 15.34288093  3837
KUIPER-00140            
1 65965U 25228U   25303.88628744  .00186749  00000+0  53963-2 0  9992
2 65965  51.8795 227.0839 0006887 228.6293 131.4101 15.34390222  3836
KUIPER-00141            
1 65966U 25228V   25303.88164979  .00024203  00000+0  71878-3 0  9990
2 65966  51.8780 227.0489 0005810 196.4601 163.6197 15.34639063  3833
KUIPER-00146            
1 65967U 25228W   25303.88202775  .00041113  00000+0  12112-2 0  9992
2 65967  51.8791 227.0591 0005623 198.3245 161.7538 15.34619528  3839
KUIPER-00149            
1 65968U 25228X   25303.88000270  .00024554  00000+0  72568-3 0  9991
2 65968  51.8784 227.0395 0005730 195.3953 164.6859 15.34784054  3831
KUIPER-00154            
1 65969U 25228Y   25303.87924238  .00046670  00000+0  13616-2 0  9991
2 65969  51.8784 227.0349 0005923 193.0001 167.0833 15.34868653  3831
KUIPER-00157            
1 65970U 25228Z   25303.88462642  .00065623  00000+0  19339-2 0  9997
2 65970  51.8792 227.0753 0006061 207.4925 152.5741 15.34397675  3838
STRIX-5                 
1 65971U 25229A   25303.87612924  .00006583  00000+0  50369-3 0  9997
2 65971  41.9265 116.6033 0039877 350.4666   9.5399 15.01690420  2466
ELECTRON R/B            
1 65972U 25229B   25303.74310548  .00005557  00000+0  42757-3 0  9993
2 65972  41.9268 117.3369 0039783 349.5451  10.4543 15.01685681  2428
ELECTRON KICK STAGE R/B 
1 65973U 25229C   25303.66770557  .00009035  00000+0  66958-3 0  9999
2 65973  41.9826 117.7294 0040860 349.1880  10.8064 15.02558502  2402
